[{"OBJECT_NAME":"STARLINK-30141","OBJECT_ID":"2023-119U","EPOCH":"2026-03-09T22:00:01.999584","MEAN_MOTION":15.2107926,"ECCENTRICITY":0.00013582,"INCLINATION":43.0008,"RA_OF_ASC_NODE":79.7468,"ARG_OF_PERICENTER":280.3935,"MEAN_ANOMALY":216.6505,"EPHEMERIS_TYPE":0,"CLASSIFICATION_TYPE":"U","NORAD_CAT_ID":57620,"ELEMENT_SET_NO":999,"REV_AT_EPOCH":573,"BSTAR":0.049108878,"MEAN_MOTION_DOT":0.0121443,"MEAN_MOTION_DDOT":0},{"OBJECT_NAME":"T1DES 1 (DRAGOON 1)","OBJECT_ID":"2025-135Q","EPOCH":"2026-03-09T07:27:07.463520","MEAN_MOTION":15.23819655,"ECCENTRICITY":0.00038782,"INCLINATION":97.4578,"RA_OF_ASC_NODE":184.7906,"ARG_OF_PERICENTER":148.787,"MEAN_ANOMALY":211.3598,"EPHEMERIS_TYPE":0,"CLASSIFICATION_TYPE":"U","NORAD_CAT_ID":64542,"ELEMENT_SET_NO":999,"REV_AT_EPOCH":3970,"BSTAR":0.00060517834,"MEAN_MOTION_DOT":0.00014527,"MEAN_MOTION_DDOT":0}]
